NOAA 15                 
1 25338U 98030A   23087.20260464  .00000327  00000+0  15449-3 0  9992
2 25338  98.6157 117.6113 0010397 184.0284 176.0814 14.26277679293716
